[{"OBJECT_NAME":"STARLINK-34705","OBJECT_ID":"2025-158A","EPOCH":"2026-03-09T15:06:28.522656","MEAN_MOTION":15.05649645,"ECCENTRICITY":0.000217,"INCLINATION":97.6031,"RA_OF_ASC_NODE":293.9692,"ARG_OF_PERICENTER":66.89,"MEAN_ANOMALY":293.2555,"EPHEMERIS_TYPE":0,"CLASSIFICATION_TYPE":"U","NORAD_CAT_ID":64932,"ELEMENT_SET_NO":999,"REV_AT_EPOCH":3534,"BSTAR":0.00025057,"MEAN_MOTION_DOT":3.556e-5,"MEAN_MOTION_DDOT":0},{"OBJECT_NAME":"FENGYUN 1C DEB","OBJECT_ID":"1999-025EMJ","EPOCH":"2026-03-09T03:39:09.279936","MEAN_MOTION":15.01174269,"ECCENTRICITY":0.00472088,"INCLINATION":98.7318,"RA_OF_ASC_NODE":38.98,"ARG_OF_PERICENTER":180.721,"MEAN_ANOMALY":242.109,"EPHEMERIS_TYPE":0,"CLASSIFICATION_TYPE":"U","NORAD_CAT_ID":37717,"ELEMENT_SET_NO":999,"REV_AT_EPOCH":90691,"BSTAR":0.0034859906,"MEAN_MOTION_DOT":0.00045969,"MEAN_MOTION_DDOT":0}]
